[{"OBJECT_NAME":"STARLINK-1559","OBJECT_ID":"2020-055BC","EPOCH":"2026-03-09T05:36:23.522976","MEAN_MOTION":15.29461733,"ECCENTRICITY":0.0004229,"INCLINATION":53.0254,"RA_OF_ASC_NODE":76.0659,"ARG_OF_PERICENTER":33.971,"MEAN_ANOMALY":326.1559,"EPHEMERIS_TYPE":0,"CLASSIFICATION_TYPE":"U","NORAD_CAT_ID":46077,"ELEMENT_SET_NO":999,"REV_AT_EPOCH":30951,"BSTAR":0.0014778793,"MEAN_MOTION_DOT":0.00042685,"MEAN_MOTION_DDOT":0},{"OBJECT_NAME":"STARLINK-32424","OBJECT_ID":"2024-184S","EPOCH":"2026-03-09T03:54:30.515616","MEAN_MOTION":15.30191613,"ECCENTRICITY":0.00010111,"INCLINATION":53.161,"RA_OF_ASC_NODE":16.5816,"ARG_OF_PERICENTER":93.8363,"MEAN_ANOMALY":266.2753,"EPHEMERIS_TYPE":0,"CLASSIFICATION_TYPE":"U","NORAD_CAT_ID":61548,"ELEMENT_SET_NO":999,"REV_AT_EPOCH":7842,"BSTAR":-9.494418e-6,"MEAN_MOTION_DOT":-6.4e-6,"MEAN_MOTION_DDOT":0}]
